[{"OBJECT_NAME":"TWILIGHT-1 OBJECT AH","OBJECT_ID":"2026-004AH","EPOCH":"2026-03-09T22:52:54.416640","MEAN_MOTION":15.18463683,"ECCENTRICITY":0.00080362,"INCLINATION":97.4496,"RA_OF_ASC_NODE":69.4327,"ARG_OF_PERICENTER":333.3354,"MEAN_ANOMALY":26.7466,"EPHEMERIS_TYPE":0,"CLASSIFICATION_TYPE":"U","NORAD_CAT_ID":67394,"ELEMENT_SET_NO":999,"REV_AT_EPOCH":870,"BSTAR":0.0001790114,"MEAN_MOTION_DOT":3.623e-5,"MEAN_MOTION_DDOT":0},{"OBJECT_NAME":"PEGASUS DEB","OBJECT_ID":"1994-029ACN","EPOCH":"2026-03-09T14:54:52.276896","MEAN_MOTION":14.88956192,"ECCENTRICITY":0.0150975,"INCLINATION":81.572,"RA_OF_ASC_NODE":286.6806,"ARG_OF_PERICENTER":308.5515,"MEAN_ANOMALY":50.2248,"EPHEMERIS_TYPE":0,"CLASSIFICATION_TYPE":"U","NORAD_CAT_ID":24980,"ELEMENT_SET_NO":999,"REV_AT_EPOCH":53329,"BSTAR":0.0016647,"MEAN_MOTION_DOT":0.00019427,"MEAN_MOTION_DDOT":0}]
